2023-03-23 20:53:09,691 - root - INFO - {'OBJECT_NAME': 'IRIDIUM 7 [-]', 'OBJECT_ID': '1997-020B', 'EPOCH': '2023-03-22T17:41:31.347168', 'MEAN_MOTION': 14.34731028, 'ECCENTRICITY': 0.0002052, 'INCLINATION': 86.4015, 'RA_OF_ASC_NODE': 159.2264, 'ARG_OF_PERICENTER': 94.4752, 'MEAN_ANOMALY': 265.6678, 'EPHEMERIS_TYPE': 0, 'CLASSIFICATION_TYPE': 'U', 'NORAD_CAT_ID': 24793, 'ELEMENT_SET_NO': 999, 'REV_AT_EPOCH': 35464, 'BSTAR': 0.00020482, 'MEAN_MOTION_DOT': 5.99e-06, 'MEAN_MOTION_DDOT': 0}
